      2.10          N: GNSS NAV DATA                        RINEX VERSION / TYPE
fic2rin                                 03/31/2019 00:19:38 PGM / RUN BY / DATE
                                                            END OF HEADER
13 19  3 30  4  0  0.0-6.981752812862e-05 1.477928890381e-12 0.000000000000e+00
    1.200000000000e+01 2.625000000000e+01 4.381253925383e-09-1.886544794003e+00
    1.337379217148e-06 3.640375682153e-03 7.739290595055e-06 5.153661529541e+03
    5.328000000000e+05 7.823109626770e-08 3.567975915604e-01 1.862645149231e-08
    9.683889478467e-01 2.358750000000e+02 1.342652672382e+00-7.880685405037e-09
    1.010756387775e-10 1.000000000000e+00 2.046000000000e+03 0.000000000000e+00
    2.400000000000e+00 0.000000000000e+00-1.117587089539e-08 1.200000000000e+01
    5.256000000000e+05 4.000000000000e+00
11 19  3 30  4  0  0.0-6.360840052366e-04 6.934897101019e-12 0.000000000000e+00
    4.700000000000e+01-1.678125000000e+01 5.913460605085e-09 2.590325745419e+00
   -9.462237358093e-07 1.654403074645e-02 2.371147274971e-06 5.153694023132e+03
    5.328000000000e+05 2.458691596985e-07-2.301584836464e+00-1.862645149231e-09
    9.088412492517e-01 3.038125000000e+02 1.873265993391e+00-8.682147360573e-09
   -8.571785620706e-12 1.000000000000e+00 2.046000000000e+03 0.000000000000e+00
    2.400000000000e+00 0.000000000000e+00-1.210719347000e-08 4.700000000000e+01
    5.256000000000e+05 4.000000000000e+00
10 19  3 30  4  0  0.0 8.551543578506e-05-9.094947017729e-12 0.000000000000e+00
    4.500000000000e+01-4.818750000000e+01 4.471614832135e-09 1.221609627984e+00
   -2.332031726837e-06 4.459295305423e-03 9.693205356598e-06 5.153667245865e+03
    5.328000000000e+05-2.048909664154e-08-8.148960895216e-01 5.215406417847e-08
    9.626166797971e-01 1.944375000000e+02-2.711250093032e+00-7.978546624206e-09
   -5.250218692682e-11 1.000000000000e+00 2.046000000000e+03 0.000000000000e+00
    2.400000000000e+00 0.000000000000e+00 1.862645149231e-09 4.500000000000e+01
    5.256000000000e+05 4.000000000000e+00
12 19  3 30  4  0  0.0 2.557854168117e-04-3.296918293927e-12 0.000000000000e+00
    5.500000000000e+01 3.171875000000e+01 3.767299780300e-09 1.939284974478e+00
    1.635402441025e-06 7.610826287419e-03 8.752569556236e-06 5.153678871155e+03
    5.328000000000e+05-9.126961231232e-08 2.396085138495e+00-1.527369022369e-07
    9.834040815387e-01 2.218750000000e+02 1.053179034574e+00-7.693534752318e-09
   -4.821629411647e-11 1.000000000000e+00 2.046000000000e+03 0.000000000000e+00
    2.400000000000e+00 0.000000000000e+00-1.257285475731e-08 5.500000000000e+01
    5.256000000000e+05 4.000000000000e+00
14 19  3 30  4  0  0.0-8.647609502077e-05 1.364242052659e-12 0.000000000000e+00
    1.120000000000e+02 2.296875000000e+01 4.704838832565e-09-1.055233499671e+00
    1.231208443642e-06 1.035266532563e-02 7.400289177895e-06 5.153678810120e+03
    5.328000000000e+05 1.303851604462e-08 3.128164970341e-01 2.663582563400e-07
    9.609709876589e-01 2.387500000000e+02-1.946858062499e+00-8.162482857317e-09
    5.428797559780e-11 1.000000000000e+00 2.046000000000e+03 0.000000000000e+00
    2.400000000000e+00 0.000000000000e+00-9.778887033463e-09 1.120000000000e+02
    5.256000000000e+05 4.000000000000e+00
 9 19  3 30  4  0  0.0 4.372922703624e-04-6.139089236967e-12 0.000000000000e+00
    9.700000000000e+01 1.981250000000e+01 4.772698802062e-09-4.976320055362e-01
    9.648501873016e-07 1.360583235510e-03 8.117407560349e-06 5.153706136703e+03
    5.328000000000e+05-2.607703208923e-08 2.205152651631e-01 2.048909664154e-08
    9.529344398758e-01 2.181562500000e+02 1.748158855776e+00-8.081408051655e-09
    1.735786588193e-10 1.000000000000e+00 2.046000000000e+03 0.000000000000e+00
    2.400000000000e+00 0.000000000000e+00 1.396983861923e-09 9.700000000000e+01
    5.256000000000e+05 4.000000000000e+00
31 19  3 30  4  0  0.0 4.863645881414e-05-2.614797267597e-12 0.000000000000e+00
    8.000000000000e+00 1.421875000000e+01 4.606263297927e-09 2.291921364319e+00
    7.599592208862e-07 9.231218136847e-03 6.943941116333e-06 5.153581583023e+03
    5.328000000000e+05-7.264316082001e-08 1.310589778342e+00 9.685754776001e-08
    9.602915763187e-01 2.488437500000e+02-2.730777976435e-03-7.995333037714e-09
   -3.178703834345e-10 1.000000000000e+00 2.046000000000e+03 0.000000000000e+00
    2.400000000000e+00 0.000000000000e+00-1.350417733192e-08 8.000000000000e+00
    5.256000000000e+05 4.000000000000e+00
32 19  3 30  4  0  0.0-1.568766310811e-04 1.807620719774e-11 0.000000000000e+00
    1.700000000000e+01 2.015625000000e+01 4.770198697923e-09-1.319015845619e-01
    9.611248970032e-07 2.785015385598e-03 7.502734661102e-06 5.153764070511e+03
    5.328000000000e+05 1.490116119385e-08 2.269442634709e-01 3.539025783539e-08
    9.572111843280e-01 2.325937500000e+02-2.576743639464e+00-8.147482232481e-09
    9.643258823294e-11 1.000000000000e+00 2.046000000000e+03 0.000000000000e+00
    2.400000000000e+00 0.000000000000e+00 4.656612873077e-10 1.700000000000e+01
    5.256000000000e+05 4.000000000000e+00
16 19  3 30  4  0  0.0-2.895202487707e-05-2.728484105319e-12 0.000000000000e+00
    7.700000000000e+01 5.046875000000e+01 3.812301654809e-09 3.324953272507e-02
    2.764165401459e-06 1.082048763055e-02 8.676201105118e-06 5.153552835464e+03
    5.328000000000e+05 1.117587089539e-07 2.414998877185e+00 1.341104507446e-07
    9.837773216800e-01 2.251250000000e+02 5.580686009516e-01-7.864613306998e-09
   -3.821587755898e-11 1.000000000000e+00 2.046000000000e+03 0.000000000000e+00
    2.400000000000e+00 0.000000000000e+00-1.071020960808e-08 7.700000000000e+01
    5.256000000000e+05 4.000000000000e+00
24 19  3 30  4  0  0.0-6.408989429474e-05-5.684341886081e-13 0.000000000000e+00
    6.500000000000e+01 6.968750000000e+00 5.042710049115e-09-2.711065720003e+00
    3.706663846970e-07 8.258002228104e-03 6.267800927162e-06 5.153720832825e+03
    5.328000000000e+05-2.235174179077e-08 1.231774190534e+00-8.381903171539e-08
    9.389180886328e-01 2.473437500000e+02 6.043313766219e-01-8.234628719625e-09
   -1.407201472733e-10 1.000000000000e+00 2.046000000000e+03 0.000000000000e+00
    2.400000000000e+00 0.000000000000e+00 2.793967723846e-09 6.500000000000e+01
    5.256000000000e+05 4.000000000000e+00
30 19  3 30  4  0  0.0-7.732911035419e-05-6.707523425575e-12 0.000000000000e+00
    6.500000000000e+01 1.006250000000e+01 5.088426239092e-09 2.697321604649e+00
    5.178153514862e-07 3.799624857493e-03 6.496906280518e-06 5.153605777740e+03
    5.328000000000e+05-5.774199962616e-08 1.325819093481e+00-3.539025783539e-08
    9.412027921656e-01 2.442500000000e+02-3.011584169872e+00-8.297488480843e-09
   -2.675111429129e-10 1.000000000000e+00 2.046000000000e+03 0.000000000000e+00
    2.400000000000e+00 0.000000000000e+00 3.725290298462e-09 6.500000000000e+01
    5.256000000000e+05 4.000000000000e+00
15 19  3 30  4  0  0.0-3.210394643247e-04 1.932676241267e-12 0.000000000000e+00
    5.600000000000e+01 2.546875000000e+01 5.230575017302e-09-1.695228055613e+00
    1.288950443268e-06 1.124772604089e-02 7.878988981247e-06 5.153657882690e+03
    5.328000000000e+05 1.620501279831e-07 1.420153194852e-01-1.173466444016e-07
    9.284523829342e-01 2.095000000000e+02 7.689197883213e-01-8.218913779320e-09
    2.260808457461e-10 1.000000000000e+00 2.046000000000e+03 0.000000000000e+00
    2.400000000000e+00 0.000000000000e+00-1.071020960808e-08 5.600000000000e+01
    5.256000000000e+05 4.000000000000e+00
29 19  3 30  4  0  0.0 2.376413904130e-04-8.867573342286e-12 0.000000000000e+00
    3.900000000000e+01 4.093750000000e+01 4.065526488354e-09-1.010582609565e-01
    1.924112439156e-06 8.742237696424e-04 5.394220352173e-06 5.153777938843e+03
    5.328000000000e+05 5.401670932770e-08-2.843051006886e+00 1.117587089539e-08
    9.856683993081e-01 2.895312500000e+02 1.574716367932e+00-7.969617680851e-09
    2.275094766829e-10 1.000000000000e+00 2.046000000000e+03 0.000000000000e+00
    2.400000000000e+00 0.000000000000e+00-1.024454832077e-08 3.900000000000e+01
    5.256000000000e+05 4.000000000000e+00
23 19  3 30  4  0  0.0-1.921751536429e-04 1.364242052659e-12 0.000000000000e+00
    8.600000000000e+01 1.887500000000e+01 4.893418116221e-09-2.224680397520e+00
    8.028000593185e-07 1.299848174676e-02 7.743015885353e-06 5.153610992432e+03
    5.328000000000e+05 1.136213541031e-07 2.159648306821e-01-1.117587089539e-07
    9.437480472600e-01 2.182812500000e+02-2.282132005147e+00-7.951045478673e-09
    2.871548182937e-10 1.000000000000e+00 2.046000000000e+03 0.000000000000e+00
    2.400000000000e+00 0.000000000000e+00-2.002343535423e-08 8.600000000000e+01
    5.256000000000e+05 4.000000000000e+00
21 19  3 30  4  0  0.0-2.226419746876e-04 7.503331289627e-12 0.000000000000e+00
    9.900000000000e+01-5.981250000000e+01 5.034495421228e-09 1.495937357464e+00
   -3.654509782791e-06 2.475666382816e-02 4.261732101440e-06 5.153768745422e+03
    5.328000000000e+05 1.993030309677e-07-1.917175385913e+00-6.239861249924e-07
    9.474941635293e-01 2.925625000000e+02-1.458952370217e+00-8.362491188467e-09
    1.428630936784e-12 1.000000000000e+00 2.046000000000e+03 0.000000000000e+00
    2.400000000000e+00 0.000000000000e+00-1.024454832077e-08 9.900000000000e+01
    5.256000000000e+05 4.000000000000e+00
19 19  3 30  4  0  0.0-3.365906886756e-04 4.320099833421e-12 0.000000000000e+00
    9.200000000000e+01 3.653125000000e+01 4.166602127132e-09 1.935392573715e+00
    1.726672053337e-06 9.482028312050e-03 5.310401320457e-06 5.153630481720e+03
    5.328000000000e+05-3.725290298462e-09-2.807749738870e+00-1.788139343262e-07
    9.820066539131e-01 2.879687500000e+02 1.365498236014e+00-7.907472235101e-09
    2.375098932404e-10 1.000000000000e+00 2.046000000000e+03 0.000000000000e+00
    2.400000000000e+00 0.000000000000e+00-1.536682248116e-08 9.200000000000e+01
    5.256000000000e+05 4.000000000000e+00
